[{"OBJECT_NAME":"DAQI 1","OBJECT_ID":"2022-039A","EPOCH":"2026-03-09T22:54:20.613600","MEAN_MOTION":14.57656651,"ECCENTRICITY":0.00031421,"INCLINATION":98.1406,"RA_OF_ASC_NODE":9.9086,"ARG_OF_PERICENTER":179.0073,"MEAN_ANOMALY":181.1133,"EPHEMERIS_TYPE":0,"CLASSIFICATION_TYPE":"U","NORAD_CAT_ID":52257,"ELEMENT_SET_NO":999,"REV_AT_EPOCH":20748,"BSTAR":0.00015776959,"MEAN_MOTION_DOT":6.74e-6,"MEAN_MOTION_DDOT":0},{"OBJECT_NAME":"CZ-4B DEB","OBJECT_ID":"1999-057HX","EPOCH":"2026-03-09T18:05:43.692288","MEAN_MOTION":14.39912319,"ECCENTRICITY":0.00906289,"INCLINATION":98.7058,"RA_OF_ASC_NODE":118.5233,"ARG_OF_PERICENTER":100.1013,"MEAN_ANOMALY":16.7183,"EPHEMERIS_TYPE":0,"CLASSIFICATION_TYPE":"U","NORAD_CAT_ID":26338,"ELEMENT_SET_NO":999,"REV_AT_EPOCH":36215,"BSTAR":0.00019458166,"MEAN_MOTION_DOT":5.95e-6,"MEAN_MOTION_DDOT":0}]
